[{"OBJECT_NAME":"STARLINK-31934","OBJECT_ID":"2024-098V","EPOCH":"2026-03-09T21:57:47.126592","MEAN_MOTION":15.275847,"ECCENTRICITY":0.00012624,"INCLINATION":42.9994,"RA_OF_ASC_NODE":272.9982,"ARG_OF_PERICENTER":260.2759,"MEAN_ANOMALY":99.795,"EPHEMERIS_TYPE":0,"CLASSIFICATION_TYPE":"U","NORAD_CAT_ID":59877,"ELEMENT_SET_NO":999,"REV_AT_EPOCH":10192,"BSTAR":-0.00024836117,"MEAN_MOTION_DOT":-7.091e-5,"MEAN_MOTION_DDOT":0},{"OBJECT_NAME":"CZ-4B DEB","OBJECT_ID":"2010-051E","EPOCH":"2026-03-08T22:01:50.125728","MEAN_MOTION":15.23766972,"ECCENTRICITY":0.00561086,"INCLINATION":97.769,"RA_OF_ASC_NODE":240.5013,"ARG_OF_PERICENTER":301.1291,"MEAN_ANOMALY":58.4449,"EPHEMERIS_TYPE":0,"CLASSIFICATION_TYPE":"U","NORAD_CAT_ID":38184,"ELEMENT_SET_NO":999,"REV_AT_EPOCH":82066,"BSTAR":0.0024566319,"MEAN_MOTION_DOT":0.00062123,"MEAN_MOTION_DDOT":0}]
